{"type": "FeatureCollection", "features": [ {"type": "Feature", "properties": {"norad_id": 58662, "name": "TIANMU-1 21", "group": "weather", "lat": -65.6672680678332, "lon": 107.5284413981237, "alt_km": 475.3282729610237, "timestamp": "2025-12-03T08:58:45.641779+00:00", "meta": {"OBJECT_NAME": "TIANMU-1 21", "OBJECT_ID": "2023-208C", "EPOCH": "2025-12-03T04:33:54.357408", "MEAN_MOTION": 15.31225503, "ECCENTRICITY": 0.0005972, "INCLINATION": 97.4376, "RA_OF_ASC_NODE": 90.5526, "ARG_OF_PERICENTER": 300.0168, "MEAN_ANOMALY": 60.048, "EPHEMERIS_TYPE": 0, "CLASSIFICATION_TYPE": "U", "NORAD_CAT_ID": 58662, "ELEMENT_SET_NO": 999, "REV_AT_EPOCH": 10753, "BSTAR": 0.00049712, "MEAN_MOTION_DOT": 0.00014936, "MEAN_MOTION_DDOT": 0}, "tle": {"line1": "1 58662U 23208C   25337.19021247  .00014936  00000+0  49712-3 0  9996", "line2": "2 58662  97.4376  90.5526 0005972 300.0168  60.0480 15.31225503107534"}}, "geometry": {"type": "Point", "coordinates": [107.5284413981237, -65.6672680678332]}}, {"type": "Feature", "properties": {"norad_id": 58663, "name": "TIANMU-1 22", "group": "weather", "lat": -12.638355071642701, "lon": 90.17386236042034, "alt_km": 486.29436810084826, "timestamp": "2025-12-03T08:58:45.641790+00:00", "meta": {"OBJECT_NAME": "TIANMU-1 22", "OBJECT_ID": "2023-208D", "EPOCH": "2025-12-03T05:53:24.966240", "MEAN_MOTION": 15.27345736, "ECCENTRICITY": 0.0003077, "INCLINATION": 97.4387, "RA_OF_ASC_NODE": 88.3667, "ARG_OF_PERICENTER": 331.7815, "MEAN_ANOMALY": 28.3257, "EPHEMERIS_TYPE": 0, "CLASSIFICATION_TYPE": "U", "NORAD_CAT_ID": 58663, "ELEMENT_SET_NO": 999, "REV_AT_EPOCH": 10738, "BSTAR": 0.0004567, "MEAN_MOTION_DOT": 0.00012165, "MEAN_MOTION_DDOT": 0}, "tle": {"line1": "1 58663U 23208D   25337.24542785  .00012165  00000+0  45670-3 0  9999", "line2": "2 58663  97.4387  88.3667 0003077 331.7815  28.3257 15.27345736107380"}}, "geometry": {"type": "Point", "coordinates": [90.17386236042034, -12.638355071642701]}}, {"type": "Feature", "properties": {"norad_id": 58700, "name": "TIANMU-1 15", "group": "weather", "lat": -34.05427774877127, "lon": -26.205209924032985, "alt_km": 500.73258871626876, "timestamp": "2025-12-03T08:58:45.641800+00:00", "meta": {"OBJECT_NAME": "TIANMU-1 15", "OBJECT_ID": "2024-004A", "EPOCH": "2025-12-03T04:53:28.415040", "MEAN_MOTION": 15.24474622, "ECCENTRICITY": 0.0005799, "INCLINATION": 97.4625, "RA_OF_ASC_NODE": 158.7079, "ARG_OF_PERICENTER": 336.6565, "MEAN_ANOMALY": 23.4408, "EPHEMERIS_TYPE": 0, "CLASSIFICATION_TYPE": "U", "NORAD_CAT_ID": 58700, "ELEMENT_SET_NO": 999, "REV_AT_EPOCH": 10589, "BSTAR": 0.00038799, "MEAN_MOTION_DOT": 9.467e-05, "MEAN_MOTION_DDOT": 0}, "tle": {"line1": "1 58700U 24004A   25337.20380110  .00009467  00000+0  38799-3 0  9999", "line2": "2 58700  97.4625 158.7079 0005799 336.6565  23.4408 15.24474622105897"}}, "geometry": {"type": "Point", "coordinates": [-26.205209924032985, -34.05427774877127]}}, {"type": "Feature", "properties": {"norad_id": 58701, "name": "TIANMU-1 16", "group": "weather", "lat": -54.92154230505346, "lon": 169.0270552339268, "alt_km": 497.221007917693, "timestamp": "2025-12-03T08:58:45.641810+00:00", "meta": {"OBJECT_NAME": "TIANMU-1 16", "OBJECT_ID": "2024-004B", "EPOCH": "2025-12-02T23:46:09.262272", "MEAN_MOTION": 15.24215807, "ECCENTRICITY": 0.0005055, "INCLINATION": 97.4572, "RA_OF_ASC_NODE": 157.8955, "ARG_OF_PERICENTER": 336.3217, "MEAN_ANOMALY": 23.7787, "EPHEMERIS_TYPE": 0, "CLASSIFICATION_TYPE": "U", "NORAD_CAT_ID": 58701, "ELEMENT_SET_NO": 999, "REV_AT_EPOCH": 10586, "BSTAR": 6.5909e-05, "MEAN_MOTION_DOT": 1.535e-05, "MEAN_MOTION_DDOT": 0}, "tle": {"line1": "1 58701U 24004B   25336.99038498  .00001535  00000+0  65909-4 0  9996", "line2": "2 58701  97.4572 157.8955 0005055 336.3217  23.7787 15.24215807105866"}}, "geometry": {"type": "Point", "coordinates": [169.0270552339268, -54.92154230505346]}}, {"type": "Feature", "properties": {"norad_id": 58702, "name": "TIANMU-1 17", "group": "weather", "lat": 27.163424914665967, "lon": 154.82713491370325, "alt_km": 489.99184063988923, "timestamp": "2025-12-03T08:58:45.641820+00:00", "meta": {"OBJECT_NAME": "TIANMU-1 17", "OBJECT_ID": "2024-004C", "EPOCH": "2025-12-03T04:07:58.619136", "MEAN_MOTION": 15.24272508, "ECCENTRICITY": 0.0004336, "INCLINATION": 97.4599, "RA_OF_ASC_NODE": 158.4814, "ARG_OF_PERICENTER": 339.8594, "MEAN_ANOMALY": 20.2472, "EPHEMERIS_TYPE": 0, "CLASSIFICATION_TYPE": "U", "NORAD_CAT_ID": 58702, "ELEMENT_SET_NO": 999, "REV_AT_EPOCH": 10588, "BSTAR": 0.00038116, "MEAN_MOTION_DOT": 9.241e-05, "MEAN_MOTION_DDOT": 0}, "tle": {"line1": "1 58702U 24004C   25337.17220624  .00009241  00000+0  38116-3 0  9993", "line2": "2 58702  97.4599 158.4814 0004336 339.8594  20.2472 15.24272508105880"}}, "geometry": {"type": "Point", "coordinates": [154.82713491370325, 27.163424914665967]}}, {"type": "Feature", "properties": {"norad_id": 58703, "name": "TIANMU-1 18", "group": "weather", "lat": 59.7203346490541, "lon": -8.152687780556793, "alt_km": 489.1383614948845, "timestamp": "2025-12-03T08:58:45.641833+00:00", "meta": {"OBJECT_NAME": "TIANMU-1 18", "OBJECT_ID": "2024-004D", "EPOCH": "2025-12-03T05:18:23.166144", "MEAN_MOTION": 15.24265506, "ECCENTRICITY": 0.0003697, "INCLINATION": 97.4616, "RA_OF_ASC_NODE": 158.7233, "ARG_OF_PERICENTER": 341.2836, "MEAN_ANOMALY": 18.8265, "EPHEMERIS_TYPE": 0, "CLASSIFICATION_TYPE": "U", "NORAD_CAT_ID": 58703, "ELEMENT_SET_NO": 999, "REV_AT_EPOCH": 10589, "BSTAR": 0.0003584, "MEAN_MOTION_DOT": 8.682e-05, "MEAN_MOTION_DDOT": 0}, "tle": {"line1": "1 58703U 24004D   25337.22110146  .00008682  00000+0  35840-3 0  9996", "line2": "2 58703  97.4616 158.7233 0003697 341.2836  18.8265 15.24265506105898"}}, "geometry": {"type": "Point", "coordinates": [-8.152687780556793, 59.7203346490541]}}, {"type": "Feature", "properties": {"norad_id": 58990, "name": "INSAT-3DS", "group": "weather", "lat": -0.017523664440907173, "lon": -70.77866325738592, "alt_km": 35780.48449764284, "timestamp": "2025-12-03T08:58:45.641845+00:00", "meta": {"OBJECT_NAME": "INSAT-3DS", "OBJECT_ID": "2024-033A", "EPOCH": "2025-12-03T03:52:21.155808", "MEAN_MOTION": 1.00268846, "ECCENTRICITY": 0.0001756, "INCLINATION": 0.0142, "RA_OF_ASC_NODE": 315.2718, "ARG_OF_PERICENTER": 303.9272, "MEAN_ANOMALY": 313.2286, "EPHEMERIS_TYPE": 0, "CLASSIFICATION_TYPE": "U", "NORAD_CAT_ID": 58990, "ELEMENT_SET_NO": 999, "REV_AT_EPOCH": 4510, "BSTAR": 0, "MEAN_MOTION_DOT": 0, "MEAN_MOTION_DDOT": 0}, "tle": {"line1": "1 58990U 24033A   25337.16135597  .00000000  00000+0  00000+0 0  9998", "line2": "2 58990   0.0142 315.2718 0001756 303.9272 313.2286  1.00268846 45102"}}, "geometry": {"type": "Point", "coordinates": [-70.77866325738592, -0.017523664440907173]}}, {"type": "Feature", "properties": {"norad_id": 59051, "name": "METEOR-M2 4", "group": "weather", "lat": 52.65398051249731, "lon": 125.97226872203292, "alt_km": 813.4084759536354, "timestamp": "2025-12-03T08:58:45.641856+00:00", "meta": {"OBJECT_NAME": "METEOR-M2 4", "OBJECT_ID": "2024-039A", "EPOCH": "2025-12-03T05:00:40.320864", "MEAN_MOTION": 14.22398848, "ECCENTRICITY": 0.0007547, "INCLINATION": 98.6752, "RA_OF_ASC_NODE": 294.2678, "ARG_OF_PERICENTER": 24.9751, "MEAN_ANOMALY": 335.179, "EPHEMERIS_TYPE": 0, "CLASSIFICATION_TYPE": "U", "NORAD_CAT_ID": 59051, "ELEMENT_SET_NO": 999, "REV_AT_EPOCH": 9140, "BSTAR": 4.6761e-05, "MEAN_MOTION_DOT": 6.1e-07, "MEAN_MOTION_DDOT": 0}, "tle": {"line1": "1 59051U 24039A   25337.20880001  .00000061  00000+0  46761-4 0  9991", "line2": "2 59051  98.6752 294.2678 0007547  24.9751 335.1790 14.22398848 91409"}}, "geometry": {"type": "Point", "coordinates": [125.97226872203292, 52.65398051249731]}}, {"type": "Feature", "properties": {"norad_id": 60133, "name": "GOES 19", "group": "weather", "lat": -0.0008679668220424844, "lon": 131.94621267187097, "alt_km": 35791.63572946905, "timestamp": "2025-12-03T08:58:45.641868+00:00", "meta": {"OBJECT_NAME": "GOES 19", "OBJECT_ID": "2024-119A", "EPOCH": "2025-12-03T03:07:29.076096", "MEAN_MOTION": 1.0027099, "ECCENTRICITY": 0.0001301, "INCLINATION": 0.0154, "RA_OF_ASC_NODE": 139.874, "ARG_OF_PERICENTER": 157.8752, "MEAN_ANOMALY": 106.1678, "EPHEMERIS_TYPE": 0, "CLASSIFICATION_TYPE": "U", "NORAD_CAT_ID": 60133, "ELEMENT_SET_NO": 999, "REV_AT_EPOCH": 499, "BSTAR": 0, "MEAN_MOTION_DOT": -2.29e-06, "MEAN_MOTION_DDOT": 0}, "tle": {"line1": "1 60133U 24119A   25337.13019764 -.00000229  00000+0  00000+0 0  9993", "line2": "2 60133   0.0154 139.8740 0001301 157.8752 106.1678  1.00270990  4996"}}, "geometry": {"type": "Point", "coordinates": [131.94621267187097, -0.0008679668220424844]}}, {"type": "Feature", "properties": {"norad_id": 65815, "name": "FENGYUN 3H", "group": "weather", "lat": 81.31204601268136, "lon": -168.40481345074684, "alt_km": 817.7912503006801, "timestamp": "2025-12-03T08:58:45.641879+00:00", "meta": {"OBJECT_NAME": "FENGYUN 3H", "OBJECT_ID": "2025-219A", "EPOCH": "2025-12-03T03:29:11.863680", "MEAN_MOTION": 14.19900151, "ECCENTRICITY": 6.43e-05, "INCLINATION": 98.657, "RA_OF_ASC_NODE": 276.9447, "ARG_OF_PERICENTER": 70.5811, "MEAN_ANOMALY": 289.5435, "EPHEMERIS_TYPE": 0, "CLASSIFICATION_TYPE": "U", "NORAD_CAT_ID": 65815, "ELEMENT_SET_NO": 999, "REV_AT_EPOCH": 956, "BSTAR": 8.4148e-05, "MEAN_MOTION_DOT": 1.35e-06, "MEAN_MOTION_DDOT": 0}, "tle": {"line1": "1 65815U 25219A   25337.14527620  .00000135  00000+0  84148-4 0  9998", "line2": "2 65815  98.6570 276.9447 0000643  70.5811 289.5435 14.19900151  9563"}}, "geometry": {"type": "Point", "coordinates": [-168.40481345074684, 81.31204601268136]}}]}